start=new Date('2022-07-23T00:00:00.000Z').valueOf();
sats=[{"LAUNCH_DATE":"2021-01-20","OBJECT_NAME":"STARLINK-2076","DECAY_DATE":null,"RA_OF_ASC_NODE":"255.4556","OBJECT_ID":"2021-005P","REV_AT_EPOCH":"8314","EPOCH":"2022-07-22T10:12:18.920736","MEAN_ELEMENT_THEORY":"SGP4","CLASSIFICATION_TYPE":"U","ELEMENT_SET_NO":"999","GP_ID":"208669940","ECCENTRICITY":"0.00013570","FILE":"3519932","APOAPSIS":"548.205","PERIAPSIS":"546.326","SITE":"AFETR","TIME_SYSTEM":"UTC","MEAN_MOTION":"15.06383008","RCS_SIZE":"LARGE","MEAN_ANOMALY":"293.1750","COUNTRY_CODE":"US","BSTAR":"-0.00009936200000","CENTER_NAME":"EARTH","MEAN_MOTION_DOT":"-0.00001760","EPHEMERIS_TYPE":"0","NORAD_CAT_ID":"47362","MEAN_MOTION_DDOT":"0.0000000000000","OBJECT_TYPE":"PAYLOAD","TLE_LINE1":"1 47362U 21005P   22203.42521899 -.00001760  00000-0 -99362-4 0  9998","TLE_LINE2":"2 47362  53.0542 255.4556 0001357  66.9382 293.1750 15.06383008 83142","ARG_OF_PERICENTER":"66.9382","REF_FRAME":"TEME","SEMIMAJOR_AXIS":"6925.401","INCLINATION":"53.0542","PERIOD":"95.593"},{"MEAN_ELEMENT_THEORY":"SGP4","RA_OF_ASC_NODE":"255.4232","OBJECT_ID":"2021-005Q","EPOCH":"2022-07-22T10:17:36.558240","REV_AT_EPOCH":"8314","DECAY_DATE":null,"LAUNCH_DATE":"2021-01-20","OBJECT_NAME":"STARLINK-2077","TIME_SYSTEM":"UTC","SITE":"AFETR","PERIAPSIS":"546.019","APOAPSIS":"548.437","FILE":"3519932","ECCENTRICITY":"0.00017460","GP_ID":"208670673","CLASSIFICATION_TYPE":"U","ELEMENT_SET_NO":"999","NORAD_CAT_ID":"47363","EPHEMERIS_TYPE":"0","MEAN_MOTION_DDOT":"0.0000000000000","BSTAR":"0.00003596500000","COUNTRY_CODE":"US","CENTER_NAME":"EARTH","MEAN_MOTION_DOT":"0.00000254","MEAN_ANOMALY":"304.2349","RCS_SIZE":"LARGE","MEAN_MOTION":"15.06395373","SEMIMAJOR_AXIS":"6925.363","INCLINATION":"53.0544","PERIOD":"95.592","REF_FRAME":"TEME","ARG_OF_PERICENTER":"55.8806","TLE_LINE1":"1 47363U 21005Q   22203.42889535  .00000254  00000-0  35965-4 0  9997","TLE_LINE2":"2 47363  53.0544 255.4232 0001746  55.8806 304.2349 15.06395373 83142","OBJECT_TYPE":"PAYLOAD"},{"BSTAR":"0.00265170000000","COUNTRY_CODE":"US","CENTER_NAME":"EARTH","MEAN_MOTION_DOT":"0.33638413","NORAD_CAT_ID":"47365","EPHEMERIS_TYPE":"0","MEAN_MOTION_DDOT":"0.0000124000000","MEAN_MOTION":"16.39042090","MEAN_ANOMALY":"149.6227","RCS_SIZE":"LARGE","REF_FRAME":"TEME","ARG_OF_PERICENTER":"287.5649","SEMIMAJOR_AXIS":"6546.489","INCLINATION":"53.0053","PERIOD":"87.856","TLE_LINE2":"2 47365  53.0053   8.8044 0012372 287.5649 149.6227 16.39042090 87250","TLE_LINE1":"1 47365U 21005S   22203.56177654  .33638413  12400-4  26517-2 0  9998","OBJECT_TYPE":"PAYLOAD","RA_OF_ASC_NODE":"8.8044","OBJECT_ID":"2021-005S","REV_AT_EPOCH":"8725","EPOCH":"2022-07-22T13:28:57.493056","MEAN_ELEMENT_THEORY":"SGP4","LAUNCH_DATE":"2021-01-20","OBJECT_NAME":"STARLINK-2080","DECAY_DATE":null,"PERIAPSIS":"160.255","TIME_SYSTEM":"UTC","SITE":"AFETR","ECCENTRICITY":"0.00123720","GP_ID":"208613440","CLASSIFICATION_TYPE":"U","ELEMENT_SET_NO":"999","APOAPSIS":"176.453","FILE":"3519510"},{"SEMIMAJOR_AXIS":"6925.357","PERIOD":"95.592","INCLINATION":"53.0539","ARG_OF_PERICENTER":"74.5033","REF_FRAME":"TEME","OBJECT_TYPE":"PAYLOAD","TLE_LINE1":"1 47366U 21005T   22203.85277690  .00001194  00000-0  99072-4 0  9993","TLE_LINE2":"2 47366  53.0539 253.5388 0001377  74.5033 285.6108 15.06397408 83203","EPHEMERIS_TYPE":"0","NORAD_CAT_ID":"47366","MEAN_MOTION_DDOT":"0.0000000000000","COUNTRY_CODE":"US","BSTAR":"0.00009907200000","CENTER_NAME":"EARTH","MEAN_MOTION_DOT":"0.00001194","RCS_SIZE":"LARGE","MEAN_ANOMALY":"285.6108","MEAN_MOTION":"15.06397408","SITE":"AFETR","TIME_SYSTEM":"UTC","PERIAPSIS":"546.268","FILE":"3519932","APOAPSIS":"548.175","ELEMENT_SET_NO":"999","CLASSIFICATION_TYPE":"U","GP_ID":"208668939","ECCENTRICITY":"0.00013770","MEAN_ELEMENT_THEORY":"SGP4","RA_OF_ASC_NODE":"253.5388","OBJECT_ID":"2021-005T","REV_AT_EPOCH":"8320","EPOCH":"2022-07-22T20:27:59.924160","DECAY_DATE":null,"LAUNCH_DATE":"2021-01-20","OBJECT_NAME":"STARLINK-2081"},{"PERIAPSIS":"546.148","TIME_SYSTEM":"UTC","SITE":"AFETR","GP_ID":"208669189","ECCENTRICITY":"0.00015560","ELEMENT_SET_NO":"999","CLASSIFICATION_TYPE":"U","APOAPSIS":"548.303","FILE":"3519932","REV_AT_EPOCH":"8314","EPOCH":"2022-07-22T09:56:22.521120","RA_OF_ASC_NODE":"255.5003","OBJECT_ID":"2021-005U","MEAN_ELEMENT_THEORY":"SGP4","LAUNCH_DATE":"2021-01-20","OBJECT_NAME":"STARLINK-2082","DECAY_DATE":null,"ARG_OF_PERICENTER":"59.7895","REF_FRAME":"TEME","INCLINATION":"53.0525","PERIOD":"95.592","SEMIMAJOR_AXIS":"6925.361","TLE_LINE1":"1 47367U 21005U   22203.41414955 -.00000780  00000-0 -33494-4 0  9991","TLE_LINE2":"2 47367  53.0525 255.5003 0001556  59.7895 300.3248 15.06396019 83145","OBJECT_TYPE":"PAYLOAD","MEAN_MOTION_DOT":"-0.00000780","CENTER_NAME":"EARTH","BSTAR":"-0.00003349400000","COUNTRY_CODE":"US","MEAN_MOTION_DDOT":"0.0000000000000","NORAD_CAT_ID":"47367","EPHEMERIS_TYPE":"0","MEAN_MOTION":"15.06396019","MEAN_ANOMALY":"300.3248","RCS_SIZE":"LARGE"},{"OBJECT_TYPE":"PAYLOAD","TLE_LINE2":"2 47368  53.0534 253.4430 0001702  84.4834 275.6349 15.06394091 83210","TLE_LINE1":"1 47368U 21005V   22203.87121545  .00003251  00000-0  23709-3 0  9993","REF_FRAME":"TEME","ARG_OF_PERICENTER":"84.4834","SEMIMAJOR_AXIS":"6925.367","INCLINATION":"53.0534","PERIOD":"95.593","MEAN_MOTION":"15.06394091","RCS_SIZE":"LARGE","MEAN_ANOMALY":"275.6349","COUNTRY_CODE":"US","BSTAR":"0.00023709000000","CENTER_NAME":"EARTH","MEAN_MOTION_DOT":"0.00003251","EPHEMERIS_TYPE":"0","NORAD_CAT_ID":"47368","MEAN_MOTION_DDOT":"0.0000000000000","CLASSIFICATION_TYPE":"U","ELEMENT_SET_NO":"999","GP_ID":"208670441","ECCENTRICITY":"0.00017020","APOAPSIS":"548.410","FILE":"3519932","PERIAPSIS":"546.053","SITE":"AFETR","TIME_SYSTEM":"UTC","LAUNCH_DATE":"2021-01-20","OBJECT_NAME":"STARLINK-2084","DECAY_DATE":null,"OBJECT_ID":"2021-005V","RA_OF_ASC_NODE":"253.4430","EPOCH":"2022-07-22T20:54:33.014880","REV_AT_EPOCH":"8321","MEAN_ELEMENT_THEORY":"SGP4"},{"MEAN_MOTION":"15.06400477","RCS_SIZE":"LARGE","MEAN_ANOMALY":"300.1818","MEAN_MOTION_DOT":"0.00000276","CENTER_NAME":"EARTH","COUNTRY_CODE":"US","BSTAR":"0.00003742800000","MEAN_MOTION_DDOT":"0.0000000000000","EPHEMERIS_TYPE":"0","NORAD_CAT_ID":"47369","OBJECT_TYPE":"PAYLOAD","TLE_LINE2":"2 47369  53.0529 233.7148 0001598  59.9330 300.1818 15.06400477 83483","TLE_LINE1":"1 47369U 21005W   22203.80943364  .00000276  00000-0  37428-4 0  9996","ARG_OF_PERICENTER":"59.9330","REF_FRAME":"TEME","INCLINATION":"53.0529","PERIOD":"95.592","SEMIMAJOR_AXIS":"6925.347","LAUNCH_DATE":"2021-01-20","OBJECT_NAME":"STARLINK-2085","DECAY_DATE":null,"REV_AT_EPOCH":"8348","EPOCH":"2022-07-22T19:25:35.066496","RA_OF_ASC_NODE":"233.7148","OBJECT_ID":"2021-005W","MEAN_ELEMENT_THEORY":"SGP4","CLASSIFICATION_TYPE":"U","ELEMENT_SET_NO":"999","ECCENTRICITY":"0.00015980","GP_ID":"208670173","APOAPSIS":"548.319","FILE":"3519932","PERIAPSIS":"546.105","SITE":"AFETR","TIME_SYSTEM":"UTC"},{"ARG_OF_PERICENTER":"54.5013","REF_FRAME":"TEME","SEMIMAJOR_AXIS":"6925.342","PERIOD":"95.592","INCLINATION":"53.0541","TLE_LINE1":"1 47370U 21005X   22203.76799539  .00000106  00000-0  26040-4 0  9996","TLE_LINE2":"2 47370  53.0541 213.9216 0001694  54.5013 305.6134 15.06402267 83762","OBJECT_TYPE":"PAYLOAD","BSTAR":"0.00002604000000","COUNTRY_CODE":"US","CENTER_NAME":"EARTH","MEAN_MOTION_DOT":"0.00000106","NORAD_CAT_ID":"47370","EPHEMERIS_TYPE":"0","MEAN_MOTION_DDOT":"0.0000000000000","MEAN_MOTION":"15.06402267","MEAN_ANOMALY":"305.6134","RCS_SIZE":"LARGE","PERIAPSIS":"546.033","TIME_SYSTEM":"UTC","SITE":"AFETR","ECCENTRICITY":"0.00016940","GP_ID":"208669440","CLASSIFICATION_TYPE":"U","ELEMENT_SET_NO":"999","FILE":"3519932","APOAPSIS":"548.380","OBJECT_ID":"2021-005X","RA_OF_ASC_NODE":"213.9216","EPOCH":"2022-07-22T18:25:54.801696","REV_AT_EPOCH":"8376","MEAN_ELEMENT_THEORY":"SGP4","OBJECT_NAME":"STARLINK-2086","LAUNCH_DATE":"2021-01-20","DECAY_DATE":null},{"REV_AT_EPOCH":"8314","EPOCH":"2022-07-22T10:06:59.821344","RA_OF_ASC_NODE":"255.4768","OBJECT_ID":"2021-005Y","MEAN_ELEMENT_THEORY":"SGP4","LAUNCH_DATE":"2021-01-20","OBJECT_NAME":"STARLINK-2088","DECAY_DATE":null,"PERIAPSIS":"546.253","SITE":"AFETR","TIME_SYSTEM":"UTC","CLASSIFICATION_TYPE":"U","ELEMENT_SET_NO":"999","ECCENTRICITY":"0.00013490","GP_ID":"208669690","APOAPSIS":"548.122","FILE":"3519932","MEAN_MOTION_DOT":"0.00004167","CENTER_NAME":"EARTH","COUNTRY_CODE":"US","BSTAR":"0.00029839000000","MEAN_MOTION_DDOT":"0.0000000000000","EPHEMERIS_TYPE":"0","NORAD_CAT_ID":"47371","MEAN_MOTION":"15.06408515","RCS_SIZE":"LARGE","MEAN_ANOMALY":"286.5357","ARG_OF_PERICENTER":"73.5780","REF_FRAME":"TEME","PERIOD":"95.592","INCLINATION":"53.0543","SEMIMAJOR_AXIS":"6925.322","OBJECT_TYPE":"PAYLOAD","TLE_LINE1":"1 47371U 21005Y   22203.42152571  .00004167  00000-0  29839-3 0  9998","TLE_LINE2":"2 47371  53.0543 255.4768 0001349  73.5780 286.5357 15.06408515 83145"},{"SITE":"AFETR","TIME_SYSTEM":"UTC","PERIAPSIS":"546.069","APOAPSIS":"548.347","FILE":"3519932","CLASSIFICATION_TYPE":"U","ELEMENT_SET_NO":"999","ECCENTRICITY":"0.00016450","GP_ID":"208669941","MEAN_ELEMENT_THEORY":"SGP4","EPOCH":"2022-07-22T09:59:45.933504","REV_AT_EPOCH":"8320","RA_OF_ASC_NODE":"250.8119","OBJECT_ID":"2021-005Z","DECAY_DATE":null,"LAUNCH_DATE":"2021-01-20","OBJECT_NAME":"STARLINK-2089","INCLINATION":"53.0553","PERIOD":"95.592","SEMIMAJOR_AXIS":"6925.343","REF_FRAME":"TEME","ARG_OF_PERICENTER":"60.3210","OBJECT_TYPE":"PAYLOAD","TLE_LINE1":"1 47372U 21005Z   22203.41650386 -.00000026  00000-0  17171-4 0  9993","TLE_LINE2":"2 47372  53.0553 250.8119 0001645  60.3210 299.7942 15.06401772 83208","MEAN_MOTION_DDOT":"0.0000000000000","EPHEMERIS_TYPE":"0","NORAD_CAT_ID":"47372","MEAN_MOTION_DOT":"-0.00000026","CENTER_NAME":"EARTH","COUNTRY_CODE":"US","BSTAR":"0.00001717100000","RCS_SIZE":"LARGE","MEAN_ANOMALY":"299.7942","MEAN_MOTION":"15.06401772"}];
